NORAD_CAT_ID,OBJECT_NAME,OBJECT_TYPE,EPOCH,MEAN_MOTION,ECCENTRICITY,INCLINATION,RA_OF_ASC_NODE,ARG_OF_PERICENTER,MEAN_ANOMALY,BSTAR,MEAN_MOTION_DOT,MEAN_MOTION_DDOT,TLE_LINE0,TLE_LINE1,TLE_LINE2,SEMIMAJOR_AXIS,PERIOD,APOGEE,PERIGEE,DECAYED
51130.0,STARLINK-3395,PAYLOAD,2022-07-10 08:46:02,15.08843066,0.0002281,53.2162,187.0993,50.594,309.5254,0.00011002,1.463e-05,0.0,0 STARLINK-3395,1 51130U 22005AC  22191.36531227  .00001463  00000-0  11002-3 0  9994,2 51130  53.2162 187.0993 0002281  50.5940 309.5254 15.08843066 26685,6917.871,95.437,541.314,538.158,0.0
51130.0,STARLINK-3395,PAYLOAD,2022-07-10 16:42:58,15.08845959,0.0002294,53.2163,185.6125,51.0394,309.0802,0.0001262,1.721e-05,0.0,0 STARLINK-3395,1 51130U 22005AC  22191.69650970  .00001721  00000-0  12620-3 0  9991,2 51130  53.2163 185.6125 0002294  51.0394 309.0802 15.08845959 26733,6917.861999999999,95.437,541.314,538.14,0.0
51130.0,STARLINK-3395,PAYLOAD,2022-07-11 08:36:49,15.08850078,0.0002322,53.2163,182.6386,51.6297,308.4903,0.00012043,1.629e-05,0.0,0 STARLINK-3395,1 51130U 22005AC  22192.35890516  .00001629  00000-0  12043-3 0  9993,2 51130  53.2163 182.6386 0002322  51.6297 308.4903 15.08850078 27957,6917.85,95.437,541.321,538.1080000000002,0.0
51130.0,STARLINK-3395,PAYLOAD,2022-07-11 16:33:45,15.08838409,0.0002292,53.2164,181.1516,51.5233,308.5964,1.2074000000000003e-05,-9.6e-07,0.0,0 STARLINK-3395,1 51130U 22005AC  22192.69011555 -.00000096  00000-0  12074-4 0  9991,2 51130  53.2164 181.1516 0002292  51.5233 308.5964 15.08838409 26885,6917.885,95.438,541.336,538.165,0.0
51130.0,STARLINK-3395,PAYLOAD,2022-07-12 11:38:23,15.088455800000002,0.0002314,53.2163,177.5833,52.4239,307.6963,4.418800000000001e-05,4.15e-06,0.0,0 STARLINK-3395,1 51130U 22005AC  22193.48498963  .00000415  00000-0  44188-4 0  9996,2 51130  53.2163 177.5833 0002314  52.4239 307.6963 15.08845580 28122,6917.863,95.437,541.3290000000002,538.128,0.0
51130.0,STARLINK-3395,PAYLOAD,2022-07-12 16:24:32,15.0884819,0.000228,53.2164,176.69099999999997,52.7067,307.4133,5.724800000000001e-05,6.23e-06,0.0,0 STARLINK-3395,1 51130U 22005AC  22193.68370676  .00000623  00000-0  57248-4 0  9990,2 51130  53.2164 176.6910 0002280  52.7067 307.4133 15.08848190 27039,6917.855,95.437,541.298,538.143,0.0
51130.0,STARLINK-3395,PAYLOAD,2022-07-13 08:18:23,15.08850424,0.0002371,53.2164,173.7177,53.853,306.2682,0.00014096,1.956e-05,0.0,0 STARLINK-3395,1 51130U 22005AC  22194.34610038  .00001956  00000-0  14096-3 0  9996,2 51130  53.2164 173.7177 0002371  53.8530 306.2682 15.08850424 27130,6917.849,95.437,541.354,538.073,0.0
51130.0,STARLINK-3395,PAYLOAD,2022-07-13 16:15:19,15.08837194,0.0002622,53.2166,172.2311,54.7877,305.336,8.4018e-05,1.049e-05,0.0,0 STARLINK-3395,1 51130U 22005AC  22194.67731141  .00001049  00000-0  84018-4 0  9996,2 51130  53.2166 172.2311 0002622  54.7877 305.3360 15.08837194 28301,6917.889,95.438,541.568,537.94,0.0
51130.0,STARLINK-3395,PAYLOAD,2022-07-14 08:09:11,15.088309,0.0002504,53.2157,169.2576,57.1691,302.9542,-5.2249e-05,-1.12e-05,0.0,0 STARLINK-3395,1 51130U 22005AC  22195.33971736 -.00001120  00000-0 -52249-4 0  9999,2 51130  53.2157 169.2576 0002504  57.1691 302.9542 15.08830900 28404,6917.908,95.438,541.505,538.0409999999998,0.0
51130.0,STARLINK-3395,PAYLOAD,2022-07-15 04:49:12,15.08841418,0.0002437,53.2168,165.3925,57.0462,303.0764,3.4502e-05,2.61e-06,0.0,0 STARLINK-3395,1 51130U 22005AC  22196.20083474  .00000261  00000-0  34502-4 0  9994,2 51130  53.2168 165.3925 0002437  57.0462 303.0764 15.08841418 28539,6917.876,95.437,541.427,538.055,0.0
51130.0,STARLINK-3395,PAYLOAD,2022-07-15 07:59:58,15.08842303,0.0002466,53.2169,164.7979,58.6087,301.5146,4.5466e-05,4.35e-06,0.0,0 STARLINK-3395,1 51130U 22005AC  22196.33331401  .00000435  00000-0  45466-4 0  9998,2 51130  53.2169 164.7979 0002466  58.6087 301.5146 15.08842303 27433,6917.873000000001,95.437,541.444,538.0319999999998,0.0
51130.0,STARLINK-3395,PAYLOAD,2022-07-15 14:21:30,15.08847256,0.0002466,53.2169,163.6084,56.864,303.2588,3.9486e-05,3.4e-06,0.0,0 STARLINK-3395,1 51130U 22005AC  22196.59827057  .00000340  00000-0  39486-4 0  9993,2 51130  53.2169 163.6084 0002466  56.8640 303.2588 15.08847256 27478,6917.858,95.437,541.429,538.0169999999998,0.0
51130.0,STARLINK-3395,PAYLOAD,2022-07-16 09:26:08,15.08843663,0.0002496,53.216,160.0395,57.0409,303.0822,0.00017958,2.571e-05,0.0,0 STARLINK-3395,1 51130U 22005AC  22197.39315488  .00002571  00000-0  17958-3 0  9999,2 51130  53.2160 160.0395 0002496  57.0409 303.0822 15.08843663 28719,6917.869000000002,95.437,541.461,538.007,0.0
51130.0,STARLINK-3395,PAYLOAD,2022-07-16 14:12:17,15.08846407,0.0002492,53.2162,159.1474,57.212,302.9111,0.00020224,2.932e-05,0.0,0 STARLINK-3395,1 51130U 22005AC  22197.59187366  .00002932  00000-0  20224-3 0  9994,2 51130  53.2162 159.1474 0002492  57.2120 302.9111 15.08846407 27623,6917.861,95.437,541.45,538.002,0.0
51130.0,STARLINK-3395,PAYLOAD,2022-07-17 04:30:46,15.0883153,0.0002397,53.2161,156.4712,59.5339,300.5889,-6.4304e-05,-1.311e-05,0.0,0 STARLINK-3395,1 51130U 22005AC  22198.18804292 -.00001311  00000-0 -64304-4 0  9994,2 51130  53.2161 156.4712 0002397  59.5339 300.5889 15.08831530 28839,6917.906,95.438,541.43,538.113,0.0
51130.0,STARLINK-3395,PAYLOAD,2022-07-17 07:41:33,15.08831531,0.0002419,53.2161,155.8764,58.9217,301.2012,-5.8868e-05,-1.225e-05,0.0,0 STARLINK-3395,1 51130U 22005AC  22198.32052362 -.00001225  00000-0 -58868-4 0  9995,2 51130  53.2161 155.8764 0002419  58.9217 301.2012 15.08831531 27737,6917.906,95.438,541.445,538.0980000000002,0.0
51130.0,STARLINK-3395,PAYLOAD,2022-07-17 14:03:05,15.08835301,0.0002389,53.216,154.6868,58.2997,301.8228,-2.4555e-05,-6.79e-06,0.0,0 STARLINK-3395,1 51130U 22005AC  22198.58548267 -.00000679  00000-0 -24555-4 0  9995,2 51130  53.2160 154.6868 0002389  58.2997 301.8228 15.08835301 27770,6917.895,95.438,541.4119999999998,538.107,0.0
51130.0,STARLINK-3395,PAYLOAD,2022-07-18 02:46:10,15.08841162,0.0002394,53.2161,152.3078,59.8629,300.26,6.870800000000001e-05,8.05e-06,0.0,0 STARLINK-3395,1 51130U 22005AC  22199.11540099  .00000805  00000-0  68708-4 0  9997,2 51130  53.2161 152.3078 0002394  59.8629 300.2600 15.08841162 28976,6917.877,95.437,541.398,538.086,0.0
51130.0,STARLINK-3395,PAYLOAD,2022-07-18 13:53:52,15.08844075,0.0002371,53.2162,150.2265,58.9459,301.1766,0.00021688,3.165e-05,0.0,0 STARLINK-3395,1 51130U 22005AC  22199.57908050  .00003165  00000-0  21688-3 0  9999,2 51130  53.2162 150.2265 0002371  58.9459 301.1766 15.08844075 27921,6917.868,95.437,541.373,538.0930000000002,0.0
51130.0,STARLINK-3395,PAYLOAD,2022-07-19 04:12:21,15.0883801,0.000236,53.2164,147.55,60.2174,299.9053,0.00018773,2.701e-05,0.0,0 STARLINK-3395,1 51130U 22005AC  22200.17524834  .00002701  00000-0  18773-3 0  9998,2 51130  53.2164 147.5500 0002360  60.2174 299.9053 15.08838010 29132,6917.886,95.438,541.384,538.119,0.0
51130.0,STARLINK-3395,PAYLOAD,2022-07-19 13:44:39,15.08849572,0.0002348,53.216,145.7662,60.2561,299.8665,0.00034711,5.242e-05,0.0,0 STARLINK-3395,1 51130U 22005AC  22200.57268416  .00005242  00000-0  34711-3 0  9996,2 51130  53.2160 145.7662 0002348  60.2561 299.8665 15.08849572 28078,6917.851,95.437,541.34,538.092,0.0
51130.0,STARLINK-3395,PAYLOAD,2022-07-20 13:35:26,15.0885355,0.0002271,53.2156,141.3054,60.4754,299.6465,0.0002008,2.9100000000000013e-05,0.0,0 STARLINK-3395,1 51130U 22005AC  22201.56627576  .00002910  00000-0  20080-3 0  9995,2 51130  53.2156 141.3054 0002271  60.4754 299.6465 15.08853550 28225,6917.839,95.437,541.275,538.133,0.0
51130.0,STARLINK-3395,PAYLOAD,2022-07-20 19:56:58,15.08852314,0.0002278999999999,53.2157,140.1162,60.6764,299.4455,0.0001154,1.549e-05,0.0,0 STARLINK-3395,1 51130U 22005AC  22201.83123403  .00001549  00000-0  11540-3 0  9993,2 51130  53.2157 140.1162 0002279  60.6764 299.4455 15.08852314 29386,6917.843000000003,95.437,541.284,538.131,0.0
51130.0,STARLINK-3395,PAYLOAD,2022-07-21 05:29:17,15.08842258,0.0002133,53.2159,138.3322,59.5513,300.569,-3.1416e-05,-7.88e-06,0.0,0 STARLINK-3395,1 51130U 22005AC  22202.22867715 -.00000788  00000-0 -31416-4 0  9999,2 51130  53.2159 138.3322 0002133  59.5513 300.5690 15.08842258 29441,6917.873000000001,95.437,541.214,538.263,0.0
51130.0,STARLINK-3395,PAYLOAD,2022-07-21 07:04:40,15.08843046,0.0002145,53.2159,138.0347,59.1373,300.9829,-6.2549e-06,-3.88e-06,0.0,0 STARLINK-3395,1 51130U 22005AC  22202.29491710 -.00000388  00000-0 -62549-5 0  9992,2 51130  53.2159 138.0347 0002145  59.1373 300.9829 15.08843046 28339,6917.871,95.437,541.22,538.252,0.0
51130.0,STARLINK-3395,PAYLOAD,2022-07-22 02:09:19,15.08833346,0.0002166999999999,53.2163,134.4661,62.1056,298.0155,-8.246299999999999e-05,-1.6e-05,0.0,0 STARLINK-3395,1 51130U 22005AC  22203.08980419 -.00001600  00000-0 -82463-4 0  9993,2 51130  53.2163 134.4661 0002167  62.1056 298.0155 15.08833346 29577,6917.901,95.438,541.265,538.2669999999998,0.0
51130.0,STARLINK-3395,PAYLOAD,2022-07-22 03:44:42,15.08834506,0.0002133,53.2161,134.1685,59.5311,300.5891,-3.8089e-05,-8.94e-06,0.0,0 STARLINK-3395,1 51130U 22005AC  22203.15604431 -.00000894  00000-0 -38089-4 0  9997,2 51130  53.2161 134.1685 0002133  59.5311 300.5891 15.08834506 28467,6917.897,95.438,541.238,538.2869999999998,0.0
51130.0,STARLINK-3395,PAYLOAD,2022-07-22 19:38:33,15.0884457,0.0002106,53.2161,131.1955,60.207,299.9132,0.00029995,4.489e-05,0.0,0 STARLINK-3395,1 51130U 22005AC  22203.81844354  .00004489  00000-0  29995-3 0  9997,2 51130  53.2161 131.1955 0002106  60.2070 299.9132 15.08844570 28567,6917.866,95.437,541.188,538.275,0.0
51130.0,STARLINK-3395,PAYLOAD,2022-07-23 03:35:29,15.08853958,0.0002094,53.2164,129.709,59.7664,300.3535,0.00070202,0.00010907,0.0,0 STARLINK-3395,1 51130U 22005AC  22204.14964285  .00010907  00000-0  70202-3 0  9999,2 51130  53.2164 129.7090 0002094  59.7664 300.3535 15.08853958 29735,6917.8380000000025,95.437,541.151,538.254,0.0
